{
  "norad_id": 62366,
  "name": "TIANQI-34",
  "history": [
    {
      "epoch": "2026-03-28T21:23:29.342976Z",
      "apogee_km": 900.5213931409226,
      "perigee_km": 892.8874655386289,
      "latitude_deg": 5.146918944606701e-05,
      "longitude_deg": 171.83713587232594,
      "height_km": 892.8857167940465,
      "semi_major_axis_km": 7274.8414293397755,
      "eccentricity": 0.00052468,
      "inclination_deg": 44.981,
      "raan_deg": 319.0146,
      "arg_perigee_deg": 1.3819,
      "mean_anomaly_deg": 358.7028,
      "mean_motion_rev_day": 13.99160271
    },
    {
      "epoch": "2026-03-29T00:49:08.063040Z",
      "apogee_km": 900.514007156592,
      "perigee_km": 892.8943385121647,
      "latitude_deg": -5.4608506053214574e-05,
      "longitude_deg": 119.6495374269449,
      "height_km": 892.8939811389746,
      "semi_major_axis_km": 7274.841172834378,
      "eccentricity": 0.0005237,
      "inclination_deg": 44.981,
      "raan_deg": 318.3792,
      "arg_perigee_deg": 2.1001,
      "mean_anomaly_deg": 357.9852,
      "mean_motion_rev_day": 13.99160345
    }
  ]
}